STARLINK-36101          
1 66867U 25281V   25353.83335647  .00003433  00000+0  25442-4 0  9991
2 66867  43.0009  78.8276 0001653 284.8551  32.3013 15.75045351  2377
STARLINK-36108          
1 66868U 25281W   25353.83335647  .00002061  00000+0  16516-4 0  9990
2 66868  43.0008  78.8223 0001643 272.5424  46.5298 15.75045594  2372
STARLINK-36092          
1 66869U 25281X   25353.83335647  .00003309  00000+0  24634-4 0  9997
2 66869  43.0019  78.8172 0001583 277.1655  43.8349 15.75047670  2563
STARLINK-36114          
1 66870U 25281Y   25353.83335647  .00016549  00000+0  11064-3 0  9991
2 66870  43.0007  78.8127 0001634 279.2204  43.6933 15.75036407  2431
STARLINK-36095          
1 66871U 25281Z   25353.83335647  .00046621  00000+0  30524-3 0  9998
2 66871  43.0021  78.8071 0001625 275.3459  49.4928 15.75015975  2564
STARLINK-36082          
1 66872U 25281AA  25353.83335647  .00010317  00000+0  70183-4 0  9998
2 66872  43.0015  78.8023 0001660 281.5477  45.1947 15.75040539  2437
STARLINK-36128          
1 66873U 25281AB  25353.83335647 -.00004345  00000+0 -25188-4 0  9990
2 66873  43.0021  78.7871 0001726 274.6481  57.8504 15.75040213  2568
STARLINK-36129          
1 66874U 25281AC  25353.83335647  .00023623  00000+0  15649-3 0  9999
2 66874  43.0022  78.7972 0001688 276.4035  52.2620 15.75034521  2567
STARLINK-36053          
1 66875U 25281AD  25353.83335647  .00022813  00000+0  15124-3 0  9998
2 66875  43.0023  78.7818 0001630 267.0869  67.3220 15.75035393  2567
STARLINK-35702          
1 66876U 25281AE  25353.83335647 -.00034082  00000+0 -21940-3 0  9995
2 66876  43.0023  78.7924 0001755 280.5316  50.0302 15.75064818  2565
ZQ-3 R/B                
1 66877U 25282A   25353.83456384  .00980728  77351-5  17793-3 0  9994
2 66877  56.9493  30.2137 0719152 232.4030 120.9601 14.73971874  2436
STARLINK-35866          
1 66878U 25283A   25353.83335647 -.01258824  00000+0 -89727-2 0  9998
2 66878  53.1565  38.2162 0000625  79.6167 300.3903 15.75645322  3565
