CCSDS_OMM_VERS = 2.0
CREATION_DATE  = 
ORIGINATOR     = 

OBJECT_NAME    = STARLINK-36101
OBJECT_ID      = 2025-281V
CENTER_NAME    = EARTH
REF_FRAME      = TEME
TIME_SYSTEM    = UTC
MEAN_ELEMENT_THEORY = SGP/SGP4

EPOCH          = 2025-12-19T20:00:01.999008
MEAN_MOTION    = 15.75045351
ECCENTRICITY   = .0001653
INCLINATION    = 43.0009
RA_OF_ASC_NODE = 78.8276
ARG_OF_PERICENTER = 284.8551
MEAN_ANOMALY   = 32.3013

EPHEMERIS_TYPE = 0
CLASSIFICATION_TYPE = U
NORAD_CAT_ID   = 66867
ELEMENT_SET_NO = 999
REV_AT_EPOCH   = 237
BSTAR          = .25442E-4
MEAN_MOTION_DOT = .3433E-4
MEAN_MOTION_DDOT = 0

CCSDS_OMM_VERS = 2.0
CREATION_DATE  = 
ORIGINATOR     = 

OBJECT_NAME    = STARLINK-36108
OBJECT_ID      = 2025-281W
CENTER_NAME    = EARTH
REF_FRAME      = TEME
TIME_SYSTEM    = UTC
MEAN_ELEMENT_THEORY = SGP/SGP4

EPOCH          = 2025-12-19T20:00:01.999008
MEAN_MOTION    = 15.75045594
ECCENTRICITY   = .0001643
INCLINATION    = 43.0008
RA_OF_ASC_NODE = 78.8223
ARG_OF_PERICENTER = 272.5424
MEAN_ANOMALY   = 46.5298

EPHEMERIS_TYPE = 0
CLASSIFICATION_TYPE = U
NORAD_CAT_ID   = 66868
ELEMENT_SET_NO = 999
REV_AT_EPOCH   = 237
BSTAR          = .16516E-4
MEAN_MOTION_DOT = .2061E-4
MEAN_MOTION_DDOT = 0

CCSDS_OMM_VERS = 2.0
CREATION_DATE  = 
ORIGINATOR     = 

OBJECT_NAME    = STARLINK-36092
OBJECT_ID      = 2025-281X
CENTER_NAME    = EARTH
REF_FRAME      = TEME
TIME_SYSTEM    = UTC
MEAN_ELEMENT_THEORY = SGP/SGP4

EPOCH          = 2025-12-19T20:00:01.999008
MEAN_MOTION    = 15.75047670
ECCENTRICITY   = .0001583
INCLINATION    = 43.0019
RA_OF_ASC_NODE = 78.8172
ARG_OF_PERICENTER = 277.1655
MEAN_ANOMALY   = 43.8349

EPHEMERIS_TYPE = 0
CLASSIFICATION_TYPE = U
NORAD_CAT_ID   = 66869
ELEMENT_SET_NO = 999
REV_AT_EPOCH   = 256
BSTAR          = .24634E-4
MEAN_MOTION_DOT = .3309E-4
MEAN_MOTION_DDOT = 0

CCSDS_OMM_VERS = 2.0
CREATION_DATE  = 
ORIGINATOR     = 

OBJECT_NAME    = STARLINK-36114
OBJECT_ID      = 2025-281Y
CENTER_NAME    = EARTH
REF_FRAME      = TEME
TIME_SYSTEM    = UTC
MEAN_ELEMENT_THEORY = SGP/SGP4

EPOCH          = 2025-12-19T20:00:01.999008
MEAN_MOTION    = 15.75036407
ECCENTRICITY   = .0001634
INCLINATION    = 43.0007
RA_OF_ASC_NODE = 78.8127
ARG_OF_PERICENTER = 279.2204
MEAN_ANOMALY   = 43.6933

EPHEMERIS_TYPE = 0
CLASSIFICATION_TYPE = U
NORAD_CAT_ID   = 66870
ELEMENT_SET_NO = 999
REV_AT_EPOCH   = 243
BSTAR          = .11064E-3
MEAN_MOTION_DOT = .16549E-3
MEAN_MOTION_DDOT = 0

CCSDS_OMM_VERS = 2.0
CREATION_DATE  = 
ORIGINATOR     = 

OBJECT_NAME    = STARLINK-36095
OBJECT_ID      = 2025-281Z
CENTER_NAME    = EARTH
REF_FRAME      = TEME
TIME_SYSTEM    = UTC
MEAN_ELEMENT_THEORY = SGP/SGP4

EPOCH          = 2025-12-19T20:00:01.999008
MEAN_MOTION    = 15.75015975
ECCENTRICITY   = .0001625
INCLINATION    = 43.0021
RA_OF_ASC_NODE = 78.8071
ARG_OF_PERICENTER = 275.3459
MEAN_ANOMALY   = 49.4928

EPHEMERIS_TYPE = 0
CLASSIFICATION_TYPE = U
NORAD_CAT_ID   = 66871
ELEMENT_SET_NO = 999
REV_AT_EPOCH   = 256
BSTAR          = .30524E-3
MEAN_MOTION_DOT = .46621E-3
MEAN_MOTION_DDOT = 0

CCSDS_OMM_VERS = 2.0
CREATION_DATE  = 
ORIGINATOR     = 

OBJECT_NAME    = STARLINK-36082
OBJECT_ID      = 2025-281AA
CENTER_NAME    = EARTH
REF_FRAME      = TEME
TIME_SYSTEM    = UTC
MEAN_ELEMENT_THEORY = SGP/SGP4

EPOCH          = 2025-12-19T20:00:01.999008
MEAN_MOTION    = 15.75040539
ECCENTRICITY   = .000166
INCLINATION    = 43.0015
RA_OF_ASC_NODE = 78.8023
ARG_OF_PERICENTER = 281.5477
MEAN_ANOMALY   = 45.1947

EPHEMERIS_TYPE = 0
CLASSIFICATION_TYPE = U
NORAD_CAT_ID   = 66872
ELEMENT_SET_NO = 999
REV_AT_EPOCH   = 243
BSTAR          = .70183E-4
MEAN_MOTION_DOT = .10317E-3
MEAN_MOTION_DDOT = 0

CCSDS_OMM_VERS = 2.0
CREATION_DATE  = 
ORIGINATOR     = 

OBJECT_NAME    = STARLINK-36128
OBJECT_ID      = 2025-281AB
CENTER_NAME    = EARTH
REF_FRAME      = TEME
TIME_SYSTEM    = UTC
MEAN_ELEMENT_THEORY = SGP/SGP4

EPOCH          = 2025-12-19T20:00:01.999008
MEAN_MOTION    = 15.75040213
ECCENTRICITY   = .0001726
INCLINATION    = 43.0021
RA_OF_ASC_NODE = 78.7871
ARG_OF_PERICENTER = 274.6481
MEAN_ANOMALY   = 57.8504

EPHEMERIS_TYPE = 0
CLASSIFICATION_TYPE = U
NORAD_CAT_ID   = 66873
ELEMENT_SET_NO = 999
REV_AT_EPOCH   = 256
BSTAR          = -.25188E-4
MEAN_MOTION_DOT = -.4345E-4
MEAN_MOTION_DDOT = 0

CCSDS_OMM_VERS = 2.0
CREATION_DATE  = 
ORIGINATOR     = 

OBJECT_NAME    = STARLINK-36129
OBJECT_ID      = 2025-281AC
CENTER_NAME    = EARTH
REF_FRAME      = TEME
TIME_SYSTEM    = UTC
MEAN_ELEMENT_THEORY = SGP/SGP4

EPOCH          = 2025-12-19T20:00:01.999008
MEAN_MOTION    = 15.75034521
ECCENTRICITY   = .0001688
INCLINATION    = 43.0022
RA_OF_ASC_NODE = 78.7972
ARG_OF_PERICENTER = 276.4035
MEAN_ANOMALY   = 52.2620

EPHEMERIS_TYPE = 0
CLASSIFICATION_TYPE = U
NORAD_CAT_ID   = 66874
ELEMENT_SET_NO = 999
REV_AT_EPOCH   = 256
BSTAR          = .15649E-3
MEAN_MOTION_DOT = .23623E-3
MEAN_MOTION_DDOT = 0

CCSDS_OMM_VERS = 2.0
CREATION_DATE  = 
ORIGINATOR     = 

OBJECT_NAME    = STARLINK-36053
OBJECT_ID      = 2025-281AD
CENTER_NAME    = EARTH
REF_FRAME      = TEME
TIME_SYSTEM    = UTC
MEAN_ELEMENT_THEORY = SGP/SGP4

EPOCH          = 2025-12-19T20:00:01.999008
MEAN_MOTION    = 15.75035393
ECCENTRICITY   = .000163
INCLINATION    = 43.0023
RA_OF_ASC_NODE = 78.7818
ARG_OF_PERICENTER = 267.0869
MEAN_ANOMALY   = 67.3220

EPHEMERIS_TYPE = 0
CLASSIFICATION_TYPE = U
NORAD_CAT_ID   = 66875
ELEMENT_SET_NO = 999
REV_AT_EPOCH   = 256
BSTAR          = .15124E-3
MEAN_MOTION_DOT = .22813E-3
MEAN_MOTION_DDOT = 0

CCSDS_OMM_VERS = 2.0
CREATION_DATE  = 
ORIGINATOR     = 

OBJECT_NAME    = STARLINK-35702
OBJECT_ID      = 2025-281AE
CENTER_NAME    = EARTH
REF_FRAME      = TEME
TIME_SYSTEM    = UTC
MEAN_ELEMENT_THEORY = SGP/SGP4

EPOCH          = 2025-12-19T20:00:01.999008
MEAN_MOTION    = 15.75064818
ECCENTRICITY   = .0001755
INCLINATION    = 43.0023
RA_OF_ASC_NODE = 78.7924
ARG_OF_PERICENTER = 280.5316
MEAN_ANOMALY   = 50.0302

EPHEMERIS_TYPE = 0
CLASSIFICATION_TYPE = U
NORAD_CAT_ID   = 66876
ELEMENT_SET_NO = 999
REV_AT_EPOCH   = 256
BSTAR          = -.2194E-3
MEAN_MOTION_DOT = -.34082E-3
MEAN_MOTION_DDOT = 0

CCSDS_OMM_VERS = 2.0
CREATION_DATE  = 
ORIGINATOR     = 

OBJECT_NAME    = ZQ-3 R/B
OBJECT_ID      = 2025-282A
CENTER_NAME    = EARTH
REF_FRAME      = TEME
TIME_SYSTEM    = UTC
MEAN_ELEMENT_THEORY = SGP/SGP4

EPOCH          = 2025-12-19T20:01:46.315776
MEAN_MOTION    = 14.73971874
ECCENTRICITY   = .0719152
INCLINATION    = 56.9493
RA_OF_ASC_NODE = 30.2137
ARG_OF_PERICENTER = 232.4030
MEAN_ANOMALY   = 120.9601

EPHEMERIS_TYPE = 0
CLASSIFICATION_TYPE = U
NORAD_CAT_ID   = 66877
ELEMENT_SET_NO = 999
REV_AT_EPOCH   = 243
BSTAR          = .17793E-3
MEAN_MOTION_DOT = .980728E-2
MEAN_MOTION_DDOT = .77351E-5

CCSDS_OMM_VERS = 2.0
CREATION_DATE  = 
ORIGINATOR     = 

OBJECT_NAME    = STARLINK-35866
OBJECT_ID      = 2025-283A
CENTER_NAME    = EARTH
REF_FRAME      = TEME
TIME_SYSTEM    = UTC
MEAN_ELEMENT_THEORY = SGP/SGP4

EPOCH          = 2025-12-19T20:00:01.999008
MEAN_MOTION    = 15.75645322
ECCENTRICITY   = .0000625
INCLINATION    = 53.1565
RA_OF_ASC_NODE = 38.2162
ARG_OF_PERICENTER = 79.6167
MEAN_ANOMALY   = 300.3903

EPHEMERIS_TYPE = 0
CLASSIFICATION_TYPE = U
NORAD_CAT_ID   = 66878
ELEMENT_SET_NO = 999
REV_AT_EPOCH   = 356
BSTAR          = -.89727E-2
MEAN_MOTION_DOT = -.1258824E-1
MEAN_MOTION_DDOT = 0

